{
  "type": "FeatureCollection",
  "features": [
    {
      "type": "Feature",
      "properties": {
        "norad_id": 66710,
        "name": "FLOCK 4H-7",
        "group": "last-30-days",
        "lat": -31.155800685141074,
        "lon": 71.37770502288808,
        "alt_km": 519.5748123903932,
        "timestamp": "2025-12-21T05:44:50.290622+00:00",
        "meta_object_name": "FLOCK 4H-7",
        "meta_object_id": "2025-276AW",
        "meta_epoch": "2025-12-20T14:03:33.697152",
        "meta_mean_motion": 15.17423858,
        "meta_eccentricity": 4.14e-05,
        "meta_inclination": 97.4398,
        "meta_ra_of_asc_node": 66.2045,
        "meta_arg_of_pericenter": 41.2457,
        "meta_mean_anomaly": 318.8808,
        "meta_ephemeris_type": 0,
        "meta_classification_type": "U",
        "meta_norad_cat_id": 66710,
        "meta_element_set_no": 999,
        "meta_rev_at_epoch": 331,
        "meta_bstar": 0.00078001,
        "meta_mean_motion_dot": 0.00015554,
        "meta_mean_motion_ddot": 0,
        "tle_line1": "1 66710U 25276AW  25354.58580668  .00015554  00000+0  78001-3 0  9995",
        "tle_line2": "2 66710  97.4398  66.2045 0000414  41.2457 318.8808 15.17423858  3314"
      },
      "geometry": {
        "type": "Point",
        "coordinates": [
          71.37770502288808,
          -31.155800685141074
        ]
      }
    },
    {
      "type": "Feature",
      "properties": {
        "norad_id": 66711,
        "name": "FLOCK 4H-8",
        "group": "last-30-days",
        "lat": -31.953810476358143,
        "lon": 71.5439432533857,
        "alt_km": 518.5488588946773,
        "timestamp": "2025-12-21T05:44:50.290634+00:00",
        "meta_object_name": "FLOCK 4H-8",
        "meta_object_id": "2025-276AX",
        "meta_epoch": "2025-12-20T14:03:47.362176",
        "meta_mean_motion": 15.17454367,
        "meta_eccentricity": 0.0002454,
        "meta_inclination": 97.4438,
        "meta_ra_of_asc_node": 66.2239,
        "meta_arg_of_pericenter": 281.1237,
        "meta_mean_anomaly": 78.9721,
        "meta_ephemeris_type": 0,
        "meta_classification_type": "U",
        "meta_norad_cat_id": 66711,
        "meta_element_set_no": 999,
        "meta_rev_at_epoch": 331,
        "meta_bstar": 0.00038737,
        "meta_mean_motion_dot": 7.69e-05,
        "meta_mean_motion_ddot": 0,
        "tle_line1": "1 66711U 25276AX  25354.58596484  .00007690  00000+0  38737-3 0  9993",
        "tle_line2": "2 66711  97.4438  66.2239 0002454 281.1237  78.9721 15.17454367  3319"
      },
      "geometry": {
        "type": "Point",
        "coordinates": [
          71.5439432533857,
          -31.953810476358143
        ]
      }
    },
    {
      "type": "Feature",
      "properties": {
        "norad_id": 66712,
        "name": "FLOCK 4H-9",
        "group": "last-30-days",
        "lat": 5.550241884797763,
        "lon": 66.15230660204496,
        "alt_km": 515.9181683713914,
        "timestamp": "2025-12-21T05:44:50.290647+00:00",
        "meta_object_name": "FLOCK 4H-9",
        "meta_object_id": "2025-276AY",
        "meta_epoch": "2025-12-20T15:28:59.949984",
        "meta_mean_motion": 15.17884555,
        "meta_eccentricity": 0.00025323,
        "meta_inclination": 97.4434,
        "meta_ra_of_asc_node": 66.2958,
        "meta_arg_of_pericenter": 226.2441,
        "meta_mean_anomaly": 133.8583,
        "meta_ephemeris_type": 0,
        "meta_classification_type": "U",
        "meta_norad_cat_id": 66712,
        "meta_element_set_no": 999,
        "meta_rev_at_epoch": 332,
        "meta_bstar": 0.00022699131,
        "meta_mean_motion_dot": 4.533e-05,
        "meta_mean_motion_ddot": 0,
        "tle_line1": "1 66712U 25276AY  25354.64513831  .00004533  00000+0  22699-3 0  9999",
        "tle_line2": "2 66712  97.4434  66.2958 0002532 226.2441 133.8583 15.17884555  3322"
      },
      "geometry": {
        "type": "Point",
        "coordinates": [
          66.15230660204496,
          5.550241884797763
        ]
      }
    },
    {
      "type": "Feature",
      "properties": {
        "norad_id": 66713,
        "name": "FLOCK 4H-10",
        "group": "last-30-days",
        "lat": -48.008229368097766,
        "lon": 75.19361887951912,
        "alt_km": 519.5581114329179,
        "timestamp": "2025-12-21T05:44:50.290657+00:00",
        "meta_object_name": "FLOCK 4H-10",
        "meta_object_id": "2025-276AZ",
        "meta_epoch": "2025-12-20T17:17:53.970720",
        "meta_mean_motion": 15.17244305,
        "meta_eccentricity": 0.00029503,
        "meta_inclination": 97.4404,
        "meta_ra_of_asc_node": 66.3364,
        "meta_arg_of_pericenter": 270.0344,
        "meta_mean_anomaly": 90.0551,
        "meta_ephemeris_type": 0,
        "meta_classification_type": "U",
        "meta_norad_cat_id": 66713,
        "meta_element_set_no": 999,
        "meta_rev_at_epoch": 333,
        "meta_bstar": 0.00032981184,
        "meta_mean_motion_dot": 6.498e-05,
        "meta_mean_motion_ddot": 0,
        "tle_line1": "1 66713U 25276AZ  25354.72076355  .00006498  00000+0  32981-3 0  9991",
        "tle_line2": "2 66713  97.4404  66.3364 0002950 270.0344  90.0551 15.17244305  3338"
      },
      "geometry": {
        "type": "Point",
        "coordinates": [
          75.19361887951912,
          -48.008229368097766
        ]
      }
    },
    {
      "type": "Feature",
      "properties": {
        "norad_id": 66714,
        "name": "FLOCK 4H-11",
        "group": "last-30-days",
        "lat": -22.72745140279545,
        "lon": 70.00567703742615,
        "alt_km": 517.2418494473241,
        "timestamp": "2025-12-21T05:44:50.290667+00:00",
        "meta_object_name": "FLOCK 4H-11",
        "meta_object_id": "2025-276BA",
        "meta_epoch": "2025-12-20T14:01:30.158112",
        "meta_mean_motion": 15.17735435,
        "meta_eccentricity": 0.0002073,
        "meta_inclination": 97.4428,
        "meta_ra_of_asc_node": 66.2227,
        "meta_arg_of_pericenter": 289.099,
        "meta_mean_anomaly": 71.002,
        "meta_ephemeris_type": 0,
        "meta_classification_type": "U",
        "meta_norad_cat_id": 66714,
        "meta_element_set_no": 999,
        "meta_rev_at_epoch": 331,
        "meta_bstar": 0.00041951,
        "meta_mean_motion_dot": 8.402e-05,
        "meta_mean_motion_ddot": 0,
        "tle_line1": "1 66714U 25276BA  25354.58437683  .00008402  00000+0  41951-3 0  9995",
        "tle_line2": "2 66714  97.4428  66.2227 0002073 289.0990  71.0020 15.17735435  3312"
      },
      "geometry": {
        "type": "Point",
        "coordinates": [
          70.00567703742615,
          -22.72745140279545
        ]
      }
    },
    {
      "type": "Feature",
      "properties": {
        "norad_id": 66715,
        "name": "FLOCK 4H-12",
        "group": "last-30-days",
        "lat": 16.008768632266193,
        "lon": 64.71900286731528,
        "alt_km": 513.7555770648396,
        "timestamp": "2025-12-21T05:44:50.290676+00:00",
        "meta_object_name": "FLOCK 4H-12",
        "meta_object_id": "2025-276BB",
        "meta_epoch": "2025-12-20T18:36:09.029664",
        "meta_mean_motion": 15.18052879,
        "meta_eccentricity": 0.00018434,
        "meta_inclination": 97.4402,
        "meta_ra_of_asc_node": 66.4112,
        "meta_arg_of_pericenter": 195.2777,
        "meta_mean_anomaly": 164.8402,
        "meta_ephemeris_type": 0,
        "meta_classification_type": "U",
        "meta_norad_cat_id": 66715,
        "meta_element_set_no": 999,
        "meta_rev_at_epoch": 365,
        "meta_bstar": 0.00036409891,
        "meta_mean_motion_dot": 7.349e-05,
        "meta_mean_motion_ddot": 0,
        "tle_line1": "1 66715U 25276BB  25354.77510451  .00007349  00000+0  36410-3 0  9995",
        "tle_line2": "2 66715  97.4402  66.4112 0001843 195.2777 164.8402 15.18052879  3652"
      },
      "geometry": {
        "type": "Point",
        "coordinates": [
          64.71900286731528,
          16.008768632266193
        ]
      }
    },
    {
      "type": "Feature",
      "properties": {
        "norad_id": 66716,
        "name": "FLOCK 4H-13",
        "group": "last-30-days",
        "lat": 26.529620634822308,
        "lon": 63.143915358732016,
        "alt_km": 511.0239957619233,
        "timestamp": "2025-12-21T05:44:50.290688+00:00",
        "meta_object_name": "FLOCK 4H-13",
        "meta_object_id": "2025-276BC",
        "meta_epoch": "2025-12-20T18:33:23.988384",
        "meta_mean_motion": 15.18161545,
        "meta_eccentricity": 0.00015715,
        "meta_inclination": 97.4437,
        "meta_ra_of_asc_node": 66.4276,
        "meta_arg_of_pericenter": 148.1688,
        "meta_mean_anomaly": 211.9642,
        "meta_ephemeris_type": 0,
        "meta_classification_type": "U",
        "meta_norad_cat_id": 66716,
        "meta_element_set_no": 999,
        "meta_rev_at_epoch": 334,
        "meta_bstar": 0.00031976945,
        "meta_mean_motion_dot": 6.466e-05,
        "meta_mean_motion_ddot": 0,
        "tle_line1": "1 66716U 25276BC  25354.77319431  .00006466  00000+0  31977-3 0  9993",
        "tle_line2": "2 66716  97.4437  66.4276 0001571 148.1688 211.9642 15.18161545  3345"
      },
      "geometry": {
        "type": "Point",
        "coordinates": [
          63.143915358732016,
          26.529620634822308
        ]
      }
    }
  ]
}